[{"OBJECT_NAME":"SHIYAN-23 (SY-23)","OBJECT_ID":"2024-089A","EPOCH":"2026-03-09T17:48:57.331872","MEAN_MOTION":14.86904923,"ECCENTRICITY":0.0004099,"INCLINATION":97.778,"RA_OF_ASC_NODE":72.5746,"ARG_OF_PERICENTER":142.8703,"MEAN_ANOMALY":217.2797,"EPHEMERIS_TYPE":0,"CLASSIFICATION_TYPE":"U","NORAD_CAT_ID":59728,"ELEMENT_SET_NO":999,"REV_AT_EPOCH":9906,"BSTAR":9.2631e-5,"MEAN_MOTION_DOT":7.74e-6,"MEAN_MOTION_DDOT":0},{"OBJECT_NAME":"GEESAT-3 02","OBJECT_ID":"2024-159B","EPOCH":"2026-03-09T22:45:04.115520","MEAN_MOTION":14.8381248,"ECCENTRICITY":0.00188552,"INCLINATION":49.9926,"RA_OF_ASC_NODE":183.54,"ARG_OF_PERICENTER":35.4495,"MEAN_ANOMALY":324.7693,"EPHEMERIS_TYPE":0,"CLASSIFICATION_TYPE":"U","NORAD_CAT_ID":61012,"ELEMENT_SET_NO":999,"REV_AT_EPOCH":8205,"BSTAR":0.00041202855,"MEAN_MOTION_DOT":3.232e-5,"MEAN_MOTION_DDOT":0}]
